[{"OBJECT_NAME":"ONEWEB-0188","OBJECT_ID":"2021-031X","EPOCH":"2026-03-09T17:21:22.296672","MEAN_MOTION":13.14502069,"ECCENTRICITY":0.00016464,"INCLINATION":87.8979,"RA_OF_ASC_NODE":309.5801,"ARG_OF_PERICENTER":82.9442,"MEAN_ANOMALY":277.1875,"EPHEMERIS_TYPE":0,"CLASSIFICATION_TYPE":"U","NORAD_CAT_ID":48231,"ELEMENT_SET_NO":999,"REV_AT_EPOCH":23507,"BSTAR":0.00063090558,"MEAN_MOTION_DOT":2.47e-6,"MEAN_MOTION_DDOT":0},{"OBJECT_NAME":"OBJECT G","OBJECT_ID":"2021-014G","EPOCH":"2026-03-09T15:36:30.755808","MEAN_MOTION":13.41597045,"ECCENTRICITY":0.0151861,"INCLINATION":63.396,"RA_OF_ASC_NODE":124.6852,"ARG_OF_PERICENTER":358.9657,"MEAN_ANOMALY":1.1031,"EPHEMERIS_TYPE":0,"CLASSIFICATION_TYPE":"U","NORAD_CAT_ID":47697,"ELEMENT_SET_NO":999,"REV_AT_EPOCH":24664,"BSTAR":0.00031318,"MEAN_MOTION_DOT":9.8e-7,"MEAN_MOTION_DDOT":0}]
